OBJECT_NAME,OBJECT_ID,EPOCH,MEAN_MOTION,ECCENTRICITY,INCLINATION,RA_OF_ASC_NODE,ARG_OF_PERICENTER,MEAN_ANOMALY,EPHEMERIS_TYPE,CLASSIFICATION_TYPE,NORAD_CAT_ID,ELEMENT_SET_NO,REV_AT_EPOCH,BSTAR,MEAN_MOTION_DOT,MEAN_MOTION_DDOT
CARTOSAT-2D,2017-008A,2026-07-12T04:28:51.612672,15.19269586,.0005695,97.4098,252.0239,147.0445,213.1145,0,U,41948,999,52137,.11963E-3,.2456E-4,0
CARTOSAT-2E,2017-036C,2026-07-12T04:54:21.620160,15.19241985,.0002972,97.4269,252.5926,197.8621,162.2510,0,U,42767,999,50194,.13906E-3,.2862E-4,0
IRIDIUM 113,2017-039A,2026-07-11T20:50:51.064512,14.34217016,.00020488,86.3988,311.8626,90.9447,269.1983,0,U,42803,999,47472,-.18362846E-4,-.32E-6,0
NORSAT 2,2017-042D,2026-07-11T06:50:36.143520,15.22382300,.00085197,97.4047,5.3526,333.5830,26.4971,0,U,42828,999,49140,.27070458E-3,.6187E-4,0
TECHNOSAT,2017-042E,2026-07-11T18:46:45.686208,15.05098506,.00177366,97.4306,349.5090,14.3873,345.7855,0,U,42829,999,49040,.16562073E-3,.2304E-4,0
FLYING LAPTOP,2017-042G,2026-07-12T04:20:21.513984,15.01300056,.0019827,97.4789,347.7711,42.0714,318.2029,0,U,42831,999,49020,.16362E-3,.2055E-4,0
WNISAT 1R,2017-042L,2026-07-11T21:03:41.736096,15.01854496,.0011261,97.4825,348.1181,74.9901,285.2570,0,U,42835,999,49021,.58908E-4,.712E-5,0
LEMUR-2-GREENBERG,2017-042N,2026-07-09T11:53:19.376160,15.32031511,.00071356,97.3831,11.0293,283.6729,76.3718,0,U,42837,999,49180,.3749711E-3,.11532E-3,0
LEMUR-2-FURIAUS,2017-042R,2026-07-10T17:54:39.577824,15.31036825,.00063598,97.3778,10.1778,347.2297,12.8782,0,U,42840,999,49181,.40490136E-3,.12077E-3,0
CORVUS BC2,2017-042X,2026-07-10T07:28:21.992160,15.06442373,.00138712,97.4090,351.7667,39.1681,321.0548,0,U,42846,999,49054,.14632989E-3,.2103E-4,0
CORVUS BC1,2017-042Y,2026-07-11T21:32:15.786816,15.06611168,.0011945,97.4117,354.1218,12.2872,347.8644,0,U,42847,999,49081,.94397E-4,.1341E-4,0
VRSS-2,2017-060A,2026-07-12T04:21:57.004128,14.81233365,.001769,97.6508,229.7818,23.1648,337.0359,0,U,42954,999,47215,.2636E-4,.156E-5,0
MOHAMMED VI-A,2017-070A,2026-07-12T04:59:05.642016,14.77098596,.0001179,97.9554,265.1933,94.1162,266.0183,0,U,43005,999,46767,-.22681E-4,-.211E-5,0
FENGYUN 3D,2017-072A,2026-07-12T05:40:19.730208,14.19744631,.000172,99.0136,168.1128,21.3195,338.8052,0,U,43010,999,44854,.67197E-4,.96E-6,0
NOAA 20 (JPSS-1),2017-073A,2026-07-12T03:57:30.223296,14.19516095,.0001277,98.7774,132.4062,127.1465,232.9828,0,U,43013,999,44801,.26591E-4,.12E-6,0
MAKERSAT 0,2017-073D,2026-07-12T02:56:40.332192,15.32930037,.0105289,97.4594,75.8460,183.1958,176.8625,0,U,43016,999,47028,.31444E-3,.11859E-3,0
RADFXSAT (FOX-1B),2017-073E,2026-07-12T01:50:41.588736,15.13035809,.0148086,97.4678,59.7847,242.3404,116.2732,0,U,43017,999,46915,.1568E-3,.355E-4,0
JILIN-1 04,2017-074A,2026-07-12T04:29:52.363104,15.43078151,.0005258,97.4872,303.4792,108.3287,251.8532,0,U,43022,999,47812,.19331E-3,.8455E-4,0
JILIN-1 05,2017-074B,2026-07-12T05:37:04.425600,15.34254808,.0006316,97.4878,299.7348,132.7997,227.3778,0,U,43023,999,47784,.13908E-3,.4532E-4,0
JILIN-1 06,2017-074C,2026-07-12T05:01:34.830624,15.33974329,.0007902,97.4804,296.6860,143.1418,217.0369,0,U,43024,999,47767,.10804E-3,.3472E-4,0
IRIDIUM 116,2017-083C,2026-07-11T20:14:19.021344,14.34216882,.0002398,86.3987,311.6942,99.6192,260.5275,0,U,43072,999,44770,.22686E-4,.83E-6,0
IRIDIUM 130,2017-083D,2026-07-11T19:28:39.375840,14.34217059,.00021811,86.3992,311.9851,100.5131,259.6311,0,U,43073,999,44764,.37407562E-4,.125E-5,0
LKW-2,2017-084A,2026-07-12T04:48:28.277856,15.26662454,.0003478,97.1184,231.8299,124.9522,235.2045,0,U,43080,999,47550,.89336E-4,.2275E-4,0
SUPERVIEW-1 03,2018-002A,2026-07-12T04:29:15.497088,15.40142433,.0047124,97.3135,277.9991,91.6395,269.0249,0,U,43099,999,47221,.31692E-3,.13131E-3,0
CARTOSAT-2F,2018-004A,2026-07-12T04:06:26.242848,15.19258482,.000246,97.4782,252.5598,143.6004,216.5398,0,U,43111,999,47112,.18051E-3,.3737E-4,0
LKW-3,2018-006A,2026-07-12T05:00:33.907392,15.35706457,.0002702,97.6627,354.7715,189.7075,170.4116,0,U,43146,999,47255,.14706E-3,.502E-4,0
ASNARO-2,2018-007A,2026-07-12T03:54:01.537056,15.22422042,.000198,97.3970,199.6992,94.4211,265.7252,0,U,43152,999,47121,.2497E-3,.5703E-4,0
JILIN-1 07,2018-008E,2026-07-12T04:36:17.282880,15.35132371,.0007053,97.1766,212.4588,340.7722,19.3255,0,U,43159,999,46883,.15903E-3,.5348E-4,0
